[{"OBJECT_NAME":"LIZZIESAT-1 (LS-1)","OBJECT_ID":"2024-043AL","EPOCH":"2026-03-09T21:24:55.126944","MEAN_MOTION":15.26635712,"ECCENTRICITY":0.00099234,"INCLINATION":97.5461,"RA_OF_ASC_NODE":203.4772,"ARG_OF_PERICENTER":229.9925,"MEAN_ANOMALY":130.0443,"EPHEMERIS_TYPE":0,"CLASSIFICATION_TYPE":"U","NORAD_CAT_ID":59132,"ELEMENT_SET_NO":999,"REV_AT_EPOCH":11178,"BSTAR":0.0002232873,"MEAN_MOTION_DOT":5.784e-5,"MEAN_MOTION_DDOT":0},{"OBJECT_NAME":"STARLINK-35782","OBJECT_ID":"2025-303V","EPOCH":"2026-03-09T01:32:42.171936","MEAN_MOTION":15.27563799,"ECCENTRICITY":0.00017939,"INCLINATION":43.003,"RA_OF_ASC_NODE":313.8882,"ARG_OF_PERICENTER":254.3565,"MEAN_ANOMALY":105.7089,"EPHEMERIS_TYPE":0,"CLASSIFICATION_TYPE":"U","NORAD_CAT_ID":67182,"ELEMENT_SET_NO":999,"REV_AT_EPOCH":1264,"BSTAR":0.00088479998,"MEAN_MOTION_DOT":0.00024154,"MEAN_MOTION_DDOT":0}]
